[{"OBJECT_NAME":"STARLINK-5231","OBJECT_ID":"2022-141AB","EPOCH":"2026-03-09T22:48:54.033696","MEAN_MOTION":15.08841807,"ECCENTRICITY":0.00013421,"INCLINATION":53.2194,"RA_OF_ASC_NODE":332.5783,"ARG_OF_PERICENTER":104.7812,"MEAN_ANOMALY":255.3329,"EPHEMERIS_TYPE":0,"CLASSIFICATION_TYPE":"U","NORAD_CAT_ID":54182,"ELEMENT_SET_NO":999,"REV_AT_EPOCH":18632,"BSTAR":-0.00016671763,"MEAN_MOTION_DOT":-2.94e-5,"MEAN_MOTION_DDOT":0},{"OBJECT_NAME":"USA 40 R\/B DEB","OBJECT_ID":"1989-061AF","EPOCH":"2026-03-07T22:36:28.042272","MEAN_MOTION":10.55163008,"ECCENTRICITY":0.21609917,"INCLINATION":56.8984,"RA_OF_ASC_NODE":304.4657,"ARG_OF_PERICENTER":296.6933,"MEAN_ANOMALY":42.8931,"EPHEMERIS_TYPE":0,"CLASSIFICATION_TYPE":"U","NORAD_CAT_ID":23359,"ELEMENT_SET_NO":999,"REV_AT_EPOCH":25893,"BSTAR":0.0085604354,"MEAN_MOTION_DOT":0.00017271,"MEAN_MOTION_DDOT":0}]
